KUIPER-00197            
1 67769U 26030F   26060.03442258  .00032360  00000+0  91717-3 0  9999
2 67769  51.8823 260.8131 0001117  67.8473 292.2631 15.35961714  3763
KUIPER-00198            
1 67770U 26030G   26060.03826890  .00025498  00000+0  73397-3 0  9997
2 67770  51.8797 260.8343 0002671  32.0502 328.0646 15.35601787  3768
KUIPER-00199            
1 67771U 26030H   26060.05531747  .00022012  00000+0  66810-3 0  9995
2 67771  51.8799 260.9423 0010355  36.7120 323.4573 15.33974433  3763
KUIPER-00200            
1 67772U 26030J   26060.02793152  .00033319  00000+0  92489-3 0  9996
2 67772  51.8805 260.7682 0001780 189.9128 170.1823 15.36596252  3765
KUIPER-00203            
1 67773U 26030K   26060.16667824 -.00654627  00000+0 -24045-1 0  9992
2 67773  51.8799 260.4479 0012452  37.7925 190.0296 15.29694344  2343
KUIPER-00205            
1 67774U 26030L   26060.03512354  .00034265  00000+0  97076-3 0  9990
2 67774  51.8800 260.8150 0002209 357.0236   3.0737 15.35945217  3764
KUIPER-00208            
1 67775U 26030M   26060.06441479  .00044207  00000+0  13738-2 0  9992
2 67775  51.8830 261.0077 0014487  37.4772 322.7220 15.32811749  3761
KUIPER-00209            
1 67776U 26030N   26060.16667824  .00002624  00000+0  97010-4 0  9992
2 67776  51.8823 260.5286 0013595  39.2296 158.8487 15.31435264  3171
KUIPER-00213            
1 67777U 26030P   26060.06446204  .00022435  00000+0  71172-3 0  9991
2 67777  51.8807 261.0001 0014471  37.9816 322.2187 15.32506223  3766
KUIPER-00214            
1 67778U 26030Q   26060.02990231  .00025821  00000+0  72529-3 0  9991
2 67778  51.8835 260.7843 0001399 178.6838 181.4152 15.36362075  3766
KUIPER-00215            
1 67779U 26030R   26060.05396095  .00022778  00000+0  68952-3 0  9996
2 67779  51.8829 260.9409 0009918  35.8881 324.2769 15.34041518  3762
KUIPER-00218            
1 67780U 26030S   26060.04644087  .00029175  00000+0  85832-3 0  9998
2 67780  51.8821 260.8908 0006493  29.8976 330.2380 15.34827448  3762
