CCSDS_OMM_VERS = 2.0
CREATION_DATE  = 
ORIGINATOR     = 

OBJECT_NAME    = KUIPER-00197
OBJECT_ID      = 2026-030F
CENTER_NAME    = EARTH
REF_FRAME      = TEME
TIME_SYSTEM    = UTC
MEAN_ELEMENT_THEORY = SGP/SGP4

EPOCH          = 2026-03-01T00:49:34.110912
MEAN_MOTION    = 15.35961714
ECCENTRICITY   = .0001117
INCLINATION    = 51.8823
RA_OF_ASC_NODE = 260.8131
ARG_OF_PERICENTER = 67.8473
MEAN_ANOMALY   = 292.2631

EPHEMERIS_TYPE = 0
CLASSIFICATION_TYPE = U
NORAD_CAT_ID   = 67769
ELEMENT_SET_NO = 999
REV_AT_EPOCH   = 376
BSTAR          = .91717E-3
MEAN_MOTION_DOT = .3236E-3
MEAN_MOTION_DDOT = 0

CCSDS_OMM_VERS = 2.0
CREATION_DATE  = 
ORIGINATOR     = 

OBJECT_NAME    = KUIPER-00198
OBJECT_ID      = 2026-030G
CENTER_NAME    = EARTH
REF_FRAME      = TEME
TIME_SYSTEM    = UTC
MEAN_ELEMENT_THEORY = SGP/SGP4

EPOCH          = 2026-03-01T00:55:06.432960
MEAN_MOTION    = 15.35601787
ECCENTRICITY   = .0002671
INCLINATION    = 51.8797
RA_OF_ASC_NODE = 260.8343
ARG_OF_PERICENTER = 32.0502
MEAN_ANOMALY   = 328.0646

EPHEMERIS_TYPE = 0
CLASSIFICATION_TYPE = U
NORAD_CAT_ID   = 67770
ELEMENT_SET_NO = 999
REV_AT_EPOCH   = 376
BSTAR          = .73397E-3
MEAN_MOTION_DOT = .25498E-3
MEAN_MOTION_DDOT = 0

CCSDS_OMM_VERS = 2.0
CREATION_DATE  = 
ORIGINATOR     = 

OBJECT_NAME    = KUIPER-00199
OBJECT_ID      = 2026-030H
CENTER_NAME    = EARTH
REF_FRAME      = TEME
TIME_SYSTEM    = UTC
MEAN_ELEMENT_THEORY = SGP/SGP4

EPOCH          = 2026-03-01T01:19:39.429408
MEAN_MOTION    = 15.33974433
ECCENTRICITY   = .0010355
INCLINATION    = 51.8799
RA_OF_ASC_NODE = 260.9423
ARG_OF_PERICENTER = 36.7120
MEAN_ANOMALY   = 323.4573

EPHEMERIS_TYPE = 0
CLASSIFICATION_TYPE = U
NORAD_CAT_ID   = 67771
ELEMENT_SET_NO = 999
REV_AT_EPOCH   = 376
BSTAR          = .6681E-3
MEAN_MOTION_DOT = .22012E-3
MEAN_MOTION_DDOT = 0

CCSDS_OMM_VERS = 2.0
CREATION_DATE  = 
ORIGINATOR     = 

OBJECT_NAME    = KUIPER-00200
OBJECT_ID      = 2026-030J
CENTER_NAME    = EARTH
REF_FRAME      = TEME
TIME_SYSTEM    = UTC
MEAN_ELEMENT_THEORY = SGP/SGP4

EPOCH          = 2026-03-01T00:40:13.283328
MEAN_MOTION    = 15.36596252
ECCENTRICITY   = .000178
INCLINATION    = 51.8805
RA_OF_ASC_NODE = 260.7682
ARG_OF_PERICENTER = 189.9128
MEAN_ANOMALY   = 170.1823

EPHEMERIS_TYPE = 0
CLASSIFICATION_TYPE = U
NORAD_CAT_ID   = 67772
ELEMENT_SET_NO = 999
REV_AT_EPOCH   = 376
BSTAR          = .92489E-3
MEAN_MOTION_DOT = .33319E-3
MEAN_MOTION_DDOT = 0

CCSDS_OMM_VERS = 2.0
CREATION_DATE  = 
ORIGINATOR     = 

OBJECT_NAME    = KUIPER-00203
OBJECT_ID      = 2026-030K
CENTER_NAME    = EARTH
REF_FRAME      = TEME
TIME_SYSTEM    = UTC
MEAN_ELEMENT_THEORY = SGP/SGP4

EPOCH          = 2026-03-01T04:00:00.999936
MEAN_MOTION    = 15.29694344
ECCENTRICITY   = .0012452
INCLINATION    = 51.8799
RA_OF_ASC_NODE = 260.4479
ARG_OF_PERICENTER = 37.7925
MEAN_ANOMALY   = 190.0296

EPHEMERIS_TYPE = 0
CLASSIFICATION_TYPE = U
NORAD_CAT_ID   = 67773
ELEMENT_SET_NO = 999
REV_AT_EPOCH   = 234
BSTAR          = -.24045E-1
MEAN_MOTION_DOT = -.654627E-2
MEAN_MOTION_DDOT = 0

CCSDS_OMM_VERS = 2.0
CREATION_DATE  = 
ORIGINATOR     = 

OBJECT_NAME    = KUIPER-00205
OBJECT_ID      = 2026-030L
CENTER_NAME    = EARTH
REF_FRAME      = TEME
TIME_SYSTEM    = UTC
MEAN_ELEMENT_THEORY = SGP/SGP4

EPOCH          = 2026-03-01T00:50:34.673856
MEAN_MOTION    = 15.35945217
ECCENTRICITY   = .0002209
INCLINATION    = 51.8800
RA_OF_ASC_NODE = 260.8150
ARG_OF_PERICENTER = 357.0236
MEAN_ANOMALY   = 3.0737

EPHEMERIS_TYPE = 0
CLASSIFICATION_TYPE = U
NORAD_CAT_ID   = 67774
ELEMENT_SET_NO = 999
REV_AT_EPOCH   = 376
BSTAR          = .97076E-3
MEAN_MOTION_DOT = .34265E-3
MEAN_MOTION_DDOT = 0

CCSDS_OMM_VERS = 2.0
CREATION_DATE  = 
ORIGINATOR     = 

OBJECT_NAME    = KUIPER-00208
OBJECT_ID      = 2026-030M
CENTER_NAME    = EARTH
REF_FRAME      = TEME
TIME_SYSTEM    = UTC
MEAN_ELEMENT_THEORY = SGP/SGP4

EPOCH          = 2026-03-01T01:32:45.437856
MEAN_MOTION    = 15.32811749
ECCENTRICITY   = .0014487
INCLINATION    = 51.8830
RA_OF_ASC_NODE = 261.0077
ARG_OF_PERICENTER = 37.4772
MEAN_ANOMALY   = 322.7220

EPHEMERIS_TYPE = 0
CLASSIFICATION_TYPE = U
NORAD_CAT_ID   = 67775
ELEMENT_SET_NO = 999
REV_AT_EPOCH   = 376
BSTAR          = .13738E-2
MEAN_MOTION_DOT = .44207E-3
MEAN_MOTION_DDOT = 0

CCSDS_OMM_VERS = 2.0
CREATION_DATE  = 
ORIGINATOR     = 

OBJECT_NAME    = KUIPER-00209
OBJECT_ID      = 2026-030N
CENTER_NAME    = EARTH
REF_FRAME      = TEME
TIME_SYSTEM    = UTC
MEAN_ELEMENT_THEORY = SGP/SGP4

EPOCH          = 2026-03-01T04:00:00.999936
MEAN_MOTION    = 15.31435264
ECCENTRICITY   = .0013595
INCLINATION    = 51.8823
RA_OF_ASC_NODE = 260.5286
ARG_OF_PERICENTER = 39.2296
MEAN_ANOMALY   = 158.8487

EPHEMERIS_TYPE = 0
CLASSIFICATION_TYPE = U
NORAD_CAT_ID   = 67776
ELEMENT_SET_NO = 999
REV_AT_EPOCH   = 317
BSTAR          = .9701E-4
MEAN_MOTION_DOT = .2624E-4
MEAN_MOTION_DDOT = 0

CCSDS_OMM_VERS = 2.0
CREATION_DATE  = 
ORIGINATOR     = 

OBJECT_NAME    = KUIPER-00213
OBJECT_ID      = 2026-030P
CENTER_NAME    = EARTH
REF_FRAME      = TEME
TIME_SYSTEM    = UTC
MEAN_ELEMENT_THEORY = SGP/SGP4

EPOCH          = 2026-03-01T01:32:49.520256
MEAN_MOTION    = 15.32506223
ECCENTRICITY   = .0014471
INCLINATION    = 51.8807
RA_OF_ASC_NODE = 261.0001
ARG_OF_PERICENTER = 37.9816
MEAN_ANOMALY   = 322.2187

EPHEMERIS_TYPE = 0
CLASSIFICATION_TYPE = U
NORAD_CAT_ID   = 67777
ELEMENT_SET_NO = 999
REV_AT_EPOCH   = 376
BSTAR          = .71172E-3
MEAN_MOTION_DOT = .22435E-3
MEAN_MOTION_DDOT = 0

CCSDS_OMM_VERS = 2.0
CREATION_DATE  = 
ORIGINATOR     = 

OBJECT_NAME    = KUIPER-00214
OBJECT_ID      = 2026-030Q
CENTER_NAME    = EARTH
REF_FRAME      = TEME
TIME_SYSTEM    = UTC
MEAN_ELEMENT_THEORY = SGP/SGP4

EPOCH          = 2026-03-01T00:43:03.559584
MEAN_MOTION    = 15.36362075
ECCENTRICITY   = .0001399
INCLINATION    = 51.8835
RA_OF_ASC_NODE = 260.7843
ARG_OF_PERICENTER = 178.6838
MEAN_ANOMALY   = 181.4152

EPHEMERIS_TYPE = 0
CLASSIFICATION_TYPE = U
NORAD_CAT_ID   = 67778
ELEMENT_SET_NO = 999
REV_AT_EPOCH   = 376
BSTAR          = .72529E-3
MEAN_MOTION_DOT = .25821E-3
MEAN_MOTION_DDOT = 0

CCSDS_OMM_VERS = 2.0
CREATION_DATE  = 
ORIGINATOR     = 

OBJECT_NAME    = KUIPER-00215
OBJECT_ID      = 2026-030R
CENTER_NAME    = EARTH
REF_FRAME      = TEME
TIME_SYSTEM    = UTC
MEAN_ELEMENT_THEORY = SGP/SGP4

EPOCH          = 2026-03-01T01:17:42.226080
MEAN_MOTION    = 15.34041518
ECCENTRICITY   = .0009918
INCLINATION    = 51.8829
RA_OF_ASC_NODE = 260.9409
ARG_OF_PERICENTER = 35.8881
MEAN_ANOMALY   = 324.2769

EPHEMERIS_TYPE = 0
CLASSIFICATION_TYPE = U
NORAD_CAT_ID   = 67779
ELEMENT_SET_NO = 999
REV_AT_EPOCH   = 376
BSTAR          = .68952E-3
MEAN_MOTION_DOT = .22778E-3
MEAN_MOTION_DDOT = 0

CCSDS_OMM_VERS = 2.0
CREATION_DATE  = 
ORIGINATOR     = 

OBJECT_NAME    = KUIPER-00218
OBJECT_ID      = 2026-030S
CENTER_NAME    = EARTH
REF_FRAME      = TEME
TIME_SYSTEM    = UTC
MEAN_ELEMENT_THEORY = SGP/SGP4

EPOCH          = 2026-03-01T01:06:52.491168
MEAN_MOTION    = 15.34827448
ECCENTRICITY   = .0006493
INCLINATION    = 51.8821
RA_OF_ASC_NODE = 260.8908
ARG_OF_PERICENTER = 29.8976
MEAN_ANOMALY   = 330.2380

EPHEMERIS_TYPE = 0
CLASSIFICATION_TYPE = U
NORAD_CAT_ID   = 67780
ELEMENT_SET_NO = 999
REV_AT_EPOCH   = 376
BSTAR          = .85832E-3
MEAN_MOTION_DOT = .29175E-3
MEAN_MOTION_DDOT = 0

